STARLINK-1501
1 15763C 20038AK  21326.12105575  .00019218  00000-0  16975-3 0  3264
2 15763  53.0534 354.5035 0007605 278.9920 145.1930 15.67953450    16
